{
  "type": "FeatureCollection",
  "features": [
    {
      "type": "Feature",
      "properties": {
        "norad_id": 35434,
        "name": "COSMOS 2251 DEB",
        "group": "cosmos-2251-debris",
        "lat": -52.30755672456724,
        "lon": 40.02613312984629,
        "alt_km": 759.0707495208608,
        "timestamp": "2025-12-21T05:44:51.983413+00:00",
        "meta_object_name": "COSMOS 2251 DEB",
        "meta_object_id": "1993-036AKC",
        "meta_epoch": "2025-12-13T21:29:58.278624",
        "meta_mean_motion": 14.25692247,
        "meta_eccentricity": 0.00874643,
        "meta_inclination": 74.0404,
        "meta_ra_of_asc_node": 211.5388,
        "meta_arg_of_pericenter": 282.0357,
        "meta_mean_anomaly": 77.0999,
        "meta_ephemeris_type": 0,
        "meta_classification_type": "U",
        "meta_norad_cat_id": 35434,
        "meta_element_set_no": 999,
        "meta_rev_at_epoch": 86134,
        "meta_bstar": 0.00076141319,
        "meta_mean_motion_dot": 1.854e-05,
        "meta_mean_motion_ddot": 0,
        "tle_line1": "1 35434U 93036AKC 25347.89581341  .00001854  00000+0  76141-3 0  9999",
        "tle_line2": "2 35434  74.0404 211.5388 0087464 282.0357  77.0999 14.25692247861349"
      },
      "geometry": {
        "type": "Point",
        "coordinates": [
          40.02613312984629,
          -52.30755672456724
        ]
      }
    },
    {
      "type": "Feature",
      "properties": {
        "norad_id": 35435,
        "name": "COSMOS 2251 DEB",
        "group": "cosmos-2251-debris",
        "lat": -61.428811928271564,
        "lon": -60.89052915844158,
        "alt_km": 637.8485358219787,
        "timestamp": "2025-12-21T05:44:51.983424+00:00",
        "meta_object_name": "COSMOS 2251 DEB",
        "meta_object_id": "1993-036AKD",
        "meta_epoch": "2025-12-18T13:24:14.493312",
        "meta_mean_motion": 14.78644291,
        "meta_eccentricity": 0.00073996,
        "meta_inclination": 74.0108,
        "meta_ra_of_asc_node": 92.6132,
        "meta_arg_of_pericenter": 188.8212,
        "meta_mean_anomaly": 191.4596,
        "meta_ephemeris_type": 0,
        "meta_classification_type": "U",
        "meta_norad_cat_id": 35435,
        "meta_element_set_no": 999,
        "meta_rev_at_epoch": 87625,
        "meta_bstar": 0.0017393261,
        "meta_mean_motion_dot": 0.0001274,
        "meta_mean_motion_ddot": 0,
        "tle_line1": "1 35435U 93036AKD 25352.55850108  .00012740  00000+0  17393-2 0  9998",
        "tle_line2": "2 35435  74.0108  92.6132 0007399 188.8212 191.4596 14.78644291876252"
      },
      "geometry": {
        "type": "Point",
        "coordinates": [
          -60.89052915844158,
          -61.428811928271564
        ]
      }
    },
    {
      "type": "Feature",
      "properties": {
        "norad_id": 35439,
        "name": "COSMOS 2251 DEB",
        "group": "cosmos-2251-debris",
        "lat": 67.69569639562793,
        "lon": 164.4868098196964,
        "alt_km": 1058.2898442462365,
        "timestamp": "2025-12-21T05:44:51.983434+00:00",
        "meta_object_name": "COSMOS 2251 DEB",
        "meta_object_id": "1993-036AKH",
        "meta_epoch": "2025-12-20T15:40:28.809408",
        "meta_mean_motion": 13.92842634,
        "meta_eccentricity": 0.0242584,
        "meta_inclination": 74.0193,
        "meta_ra_of_asc_node": 121.1801,
        "meta_arg_of_pericenter": 288.7541,
        "meta_mean_anomaly": 84.8538,
        "meta_ephemeris_type": 0,
        "meta_classification_type": "U",
        "meta_norad_cat_id": 35439,
        "meta_element_set_no": 999,
        "meta_rev_at_epoch": 84071,
        "meta_bstar": 0.0011295,
        "meta_mean_motion_dot": 1.838e-05,
        "meta_mean_motion_ddot": 0,
        "tle_line1": "1 35439U 93036AKH 25354.65311122  .00001838  00000+0  11295-2 0  9994",
        "tle_line2": "2 35439  74.0193 121.1801 0242584 288.7541  84.8538 13.92842634840712"
      },
      "geometry": {
        "type": "Point",
        "coordinates": [
          164.4868098196964,
          67.69569639562793
        ]
      }
    },
    {
      "type": "Feature",
      "properties": {
        "norad_id": 35440,
        "name": "COSMOS 2251 DEB",
        "group": "cosmos-2251-debris",
        "lat": -50.197528378484776,
        "lon": 171.03234246381592,
        "alt_km": 626.1528463145733,
        "timestamp": "2025-12-21T05:44:51.983444+00:00",
        "meta_object_name": "COSMOS 2251 DEB",
        "meta_object_id": "1993-036AKJ",
        "meta_epoch": "2025-12-17T20:15:19.490976",
        "meta_mean_motion": 14.68838958,
        "meta_eccentricity": 0.00695054,
        "meta_inclination": 74.0134,
        "meta_ra_of_asc_node": 197.7346,
        "meta_arg_of_pericenter": 337.3687,
        "meta_mean_anomaly": 22.4422,
        "meta_ephemeris_type": 0,
        "meta_classification_type": "U",
        "meta_norad_cat_id": 35440,
        "meta_element_set_no": 999,
        "meta_rev_at_epoch": 68840,
        "meta_bstar": 0.00030670457,
        "meta_mean_motion_dot": 1.824e-05,
        "meta_mean_motion_ddot": 0,
        "tle_line1": "1 35440U 93036AKJ 25351.84397559  .00001824  00000+0  30670-3 0  9996",
        "tle_line2": "2 35440  74.0134 197.7346 0069505 337.3687  22.4422 14.68838958688408"
      },
      "geometry": {
        "type": "Point",
        "coordinates": [
          171.03234246381592,
          -50.197528378484776
        ]
      }
    },
    {
      "type": "Feature",
      "properties": {
        "norad_id": 35441,
        "name": "COSMOS 2251 DEB",
        "group": "cosmos-2251-debris",
        "lat": 65.85871076174023,
        "lon": -38.706862893620524,
        "alt_km": 683.7839199854816,
        "timestamp": "2025-12-21T05:44:51.983454+00:00",
        "meta_object_name": "COSMOS 2251 DEB",
        "meta_object_id": "1993-036AKK",
        "meta_epoch": "2025-12-20T13:00:18.978048",
        "meta_mean_motion": 14.62699572,
        "meta_eccentricity": 0.0036217,
        "meta_inclination": 74.1355,
        "meta_ra_of_asc_node": 283.2382,
        "meta_arg_of_pericenter": 177.1312,
        "meta_mean_anomaly": 183.007,
        "meta_ephemeris_type": 0,
        "meta_classification_type": "U",
        "meta_norad_cat_id": 35441,
        "meta_element_set_no": 999,
        "meta_rev_at_epoch": 87544,
        "meta_bstar": 0.00085571,
        "meta_mean_motion_dot": 4.371e-05,
        "meta_mean_motion_ddot": 0,
        "tle_line1": "1 35441U 93036AKK 25354.54188632  .00004371  00000+0  85571-3 0  9997",
        "tle_line2": "2 35441  74.1355 283.2382 0036217 177.1312 183.0070 14.62699572875441"
      },
      "geometry": {
        "type": "Point",
        "coordinates": [
          -38.706862893620524,
          65.85871076174023
        ]
      }
    },
    {
      "type": "Feature",
      "properties": {
        "norad_id": 35442,
        "name": "COSMOS 2251 DEB",
        "group": "cosmos-2251-debris",
        "lat": -73.26467263517415,
        "lon": -25.454130516573617,
        "alt_km": 623.779712737025,
        "timestamp": "2025-12-21T05:44:51.983464+00:00",
        "meta_object_name": "COSMOS 2251 DEB",
        "meta_object_id": "1993-036AKL",
        "meta_epoch": "2025-12-20T12:23:11.250816",
        "meta_mean_motion": 14.84692405,
        "meta_eccentricity": 0.00038306,
        "meta_inclination": 74.0274,
        "meta_ra_of_asc_node": 83.7009,
        "meta_arg_of_pericenter": 56.8444,
        "meta_mean_anomaly": 303.3101,
        "meta_ephemeris_type": 0,
        "meta_classification_type": "U",
        "meta_norad_cat_id": 35442,
        "meta_element_set_no": 999,
        "meta_rev_at_epoch": 87468,
        "meta_bstar": 0.0013094201,
        "meta_mean_motion_dot": 0.00011072,
        "meta_mean_motion_ddot": 0,
        "tle_line1": "1 35442U 93036AKL 25354.51610244  .00011072  00000+0  13094-2 0  9990",
        "tle_line2": "2 35442  74.0274  83.7009 0003830  56.8444 303.3101 14.84692405874683"
      },
      "geometry": {
        "type": "Point",
        "coordinates": [
          -25.454130516573617,
          -73.26467263517415
        ]
      }
    },
    {
      "type": "Feature",
      "properties": {
        "norad_id": 35443,
        "name": "COSMOS 2251 DEB",
        "group": "cosmos-2251-debris",
        "lat": -40.00528226964123,
        "lon": -59.6005498663418,
        "alt_km": 617.5540956111317,
        "timestamp": "2025-12-21T05:44:51.983474+00:00",
        "meta_object_name": "COSMOS 2251 DEB",
        "meta_object_id": "1993-036AKM",
        "meta_epoch": "2025-12-19T13:50:47.178816",
        "meta_mean_motion": 14.97233241,
        "meta_eccentricity": 0.007292,
        "meta_inclination": 73.988,
        "meta_ra_of_asc_node": 317.7188,
        "meta_arg_of_pericenter": 97.8759,
        "meta_mean_anomaly": 263.0711,
        "meta_ephemeris_type": 0,
        "meta_classification_type": "U",
        "meta_norad_cat_id": 35443,
        "meta_element_set_no": 999,
        "meta_rev_at_epoch": 86980,
        "meta_bstar": 0.0025283,
        "meta_mean_motion_dot": 0.00031007,
        "meta_mean_motion_ddot": 0,
        "tle_line1": "1 35443U 93036AKM 25353.57693494  .00031007  00000+0  25283-2 0  9997",
        "tle_line2": "2 35443  73.9880 317.7188 0072920  97.8759 263.0711 14.97233241869803"
      },
      "geometry": {
        "type": "Point",
        "coordinates": [
          -59.6005498663418,
          -40.00528226964123
        ]
      }
    }
  ]
}